[{"OBJECT_NAME":"STARLINK-5923","OBJECT_ID":"2023-064AT","EPOCH":"2026-03-09T12:01:31.314432","MEAN_MOTION":14.98334951,"ECCENTRICITY":0.0002996,"INCLINATION":69.9991,"RA_OF_ASC_NODE":104.9595,"ARG_OF_PERICENTER":276.4731,"MEAN_ANOMALY":83.6087,"EPHEMERIS_TYPE":0,"CLASSIFICATION_TYPE":"U","NORAD_CAT_ID":56489,"ELEMENT_SET_NO":999,"REV_AT_EPOCH":15620,"BSTAR":9.4045218e-5,"MEAN_MOTION_DOT":1.029e-5,"MEAN_MOTION_DDOT":0},{"OBJECT_NAME":"PSLV DEB","OBJECT_ID":"2001-049PF","EPOCH":"2026-02-25T09:35:51.227808","MEAN_MOTION":15.03011877,"ECCENTRICITY":0.00263657,"INCLINATION":98.0083,"RA_OF_ASC_NODE":118.9106,"ARG_OF_PERICENTER":265.6966,"MEAN_ANOMALY":94.1245,"EPHEMERIS_TYPE":0,"CLASSIFICATION_TYPE":"U","NORAD_CAT_ID":28853,"ELEMENT_SET_NO":999,"REV_AT_EPOCH":68879,"BSTAR":0.00037786861,"MEAN_MOTION_DOT":5.057e-5,"MEAN_MOTION_DDOT":0}]
